{
  "type": "FeatureCollection",
  "features": [
    {
      "type": "Feature",
      "properties": {
        "norad_id": 38789,
        "name": "FENGYUN 1C DEB",
        "group": "fengyun-1c-debris",
        "lat": 1.8176302950399068,
        "lon": 46.21530849415769,
        "alt_km": 841.8369003095631,
        "timestamp": "2025-12-06T03:35:02.161673+00:00",
        "meta_object_name": "FENGYUN 1C DEB",
        "meta_object_id": "1999-025EUD",
        "meta_epoch": "2025-12-03T21:53:36.078432",
        "meta_mean_motion": 14.45729887,
        "meta_eccentricity": 0.02081586,
        "meta_inclination": 98.8566,
        "meta_ra_of_asc_node": 223.5958,
        "meta_arg_of_pericenter": 51.6084,
        "meta_mean_anomaly": 7.9264,
        "meta_ephemeris_type": 0,
        "meta_classification_type": "U",
        "meta_norad_cat_id": 38789,
        "meta_element_set_no": 999,
        "meta_rev_at_epoch": 61718,
        "meta_bstar": 0.0016033778,
        "meta_mean_motion_dot": 7.38e-05,
        "meta_mean_motion_ddot": 0,
        "tle_line1": "1 38789U 99025EUD 25337.91222313  .00007380  00000+0  16034-2 0  9996",
        "tle_line2": "2 38789  98.8566 223.5958 0208158  51.6084   7.9264 14.45729887617187"
      },
      "geometry": {
        "type": "Point",
        "coordinates": [
          46.21530849415769,
          1.8176302950399068
        ]
      }
    },
    {
      "type": "Feature",
      "properties": {
        "norad_id": 38795,
        "name": "FENGYUN 1C DEB",
        "group": "fengyun-1c-debris",
        "lat": 13.964440252375443,
        "lon": -173.71764303426903,
        "alt_km": 1237.7216826688236,
        "timestamp": "2025-12-06T03:35:02.161683+00:00",
        "meta_object_name": "FENGYUN 1C DEB",
        "meta_object_id": "1999-025EUK",
        "meta_epoch": "2025-12-02T08:24:42.599520",
        "meta_mean_motion": 13.29800561,
        "meta_eccentricity": 0.05040855,
        "meta_inclination": 98.7022,
        "meta_ra_of_asc_node": 0.8783,
        "meta_arg_of_pericenter": 281.6333,
        "meta_mean_anomaly": 72.8653,
        "meta_ephemeris_type": 0,
        "meta_classification_type": "U",
        "meta_norad_cat_id": 38795,
        "meta_element_set_no": 999,
        "meta_rev_at_epoch": 78374,
        "meta_bstar": 0.003965023,
        "meta_mean_motion_dot": 3.692e-05,
        "meta_mean_motion_ddot": 0,
        "tle_line1": "1 38795U 99025EUK 25336.35049305  .00003692  00000+0  39650-2 0  9999",
        "tle_line2": "2 38795  98.7022   0.8783 0504085 281.6333  72.8653 13.29800561783741"
      },
      "geometry": {
        "type": "Point",
        "coordinates": [
          -173.71764303426903,
          13.964440252375443
        ]
      }
    },
    {
      "type": "Feature",
      "properties": {
        "norad_id": 38797,
        "name": "FENGYUN 1C DEB",
        "group": "fengyun-1c-debris",
        "lat": -42.75935388388461,
        "lon": -117.92599257646573,
        "alt_km": 995.480329701034,
        "timestamp": "2025-12-06T03:35:02.161694+00:00",
        "meta_object_name": "FENGYUN 1C DEB",
        "meta_object_id": "1999-025EUM",
        "meta_epoch": "2025-12-04T11:14:12.365088",
        "meta_mean_motion": 13.61604449,
        "meta_eccentricity": 0.0245033,
        "meta_inclination": 99.4845,
        "meta_ra_of_asc_node": 231.5475,
        "meta_arg_of_pericenter": 242.5274,
        "meta_mean_anomaly": 115.0763,
        "meta_ephemeris_type": 0,
        "meta_classification_type": "U",
        "meta_norad_cat_id": 38797,
        "meta_element_set_no": 999,
        "meta_rev_at_epoch": 59170,
        "meta_bstar": 0.00058643,
        "meta_mean_motion_dot": 5.04e-06,
        "meta_mean_motion_ddot": 0,
        "tle_line1": "1 38797U 99025EUM 25338.46819867  .00000504  00000+0  58643-3 0  9996",
        "tle_line2": "2 38797  99.4845 231.5475 0245033 242.5274 115.0763 13.61604449591708"
      },
      "geometry": {
        "type": "Point",
        "coordinates": [
          -117.92599257646573,
          -42.75935388388461
        ]
      }
    },
    {
      "type": "Feature",
      "properties": {
        "norad_id": 38799,
        "name": "FENGYUN 1C DEB",
        "group": "fengyun-1c-debris",
        "lat": 60.13295299197134,
        "lon": 40.70740745354579,
        "alt_km": 648.8326246426959,
        "timestamp": "2025-12-06T03:35:02.161704+00:00",
        "meta_object_name": "FENGYUN 1C DEB",
        "meta_object_id": "1999-025EUP",
        "meta_epoch": "2025-11-26T11:13:58.529856",
        "meta_mean_motion": 14.48569792,
        "meta_eccentricity": 0.01649657,
        "meta_inclination": 98.4067,
        "meta_ra_of_asc_node": 45.9896,
        "meta_arg_of_pericenter": 40.0513,
        "meta_mean_anomaly": 321.2709,
        "meta_ephemeris_type": 0,
        "meta_classification_type": "U",
        "meta_norad_cat_id": 38799,
        "meta_element_set_no": 999,
        "meta_rev_at_epoch": 63803,
        "meta_bstar": 0.00099755644,
        "meta_mean_motion_dot": 4.406e-05,
        "meta_mean_motion_ddot": 0,
        "tle_line1": "1 38799U 99025EUP 25330.46803854  .00004406  00000+0  99756-3 0  9994",
        "tle_line2": "2 38799  98.4067  45.9896 0164965  40.0513 321.2709 14.48569792638036"
      },
      "geometry": {
        "type": "Point",
        "coordinates": [
          40.70740745354579,
          60.13295299197134
        ]
      }
    },
    {
      "type": "Feature",
      "properties": {
        "norad_id": 38801,
        "name": "FENGYUN 1C DEB",
        "group": "fengyun-1c-debris",
        "lat": -3.221309051393482,
        "lon": -149.41711158454612,
        "alt_km": 1059.7446890233923,
        "timestamp": "2025-12-06T03:35:02.161715+00:00",
        "meta_object_name": "FENGYUN 1C DEB",
        "meta_object_id": "1999-025EUR",
        "meta_epoch": "2025-12-03T21:37:27.003072",
        "meta_mean_motion": 14.24753133,
        "meta_eccentricity": 0.03476763,
        "meta_inclination": 98.3754,
        "meta_ra_of_asc_node": 28.908,
        "meta_arg_of_pericenter": 17.9855,
        "meta_mean_anomaly": 159.1973,
        "meta_ephemeris_type": 0,
        "meta_classification_type": "U",
        "meta_norad_cat_id": 38801,
        "meta_element_set_no": 999,
        "meta_rev_at_epoch": 64234,
        "meta_bstar": 0.00093380257,
        "meta_mean_motion_dot": 4.05e-05,
        "meta_mean_motion_ddot": 0,
        "tle_line1": "1 38801U 99025EUR 25337.90100698  .00004050  00000+0  93380-3 0  9992",
        "tle_line2": "2 38801  98.3754  28.9080 0347676  17.9855 159.1973 14.24753133642340"
      },
      "geometry": {
        "type": "Point",
        "coordinates": [
          -149.41711158454612,
          -3.221309051393482
        ]
      }
    },
    {
      "type": "Feature",
      "properties": {
        "norad_id": 38803,
        "name": "FENGYUN 1C DEB",
        "group": "fengyun-1c-debris",
        "lat": 75.79418284336413,
        "lon": -55.74446892432095,
        "alt_km": 763.7739172880292,
        "timestamp": "2025-12-06T03:35:02.161726+00:00",
        "meta_object_name": "FENGYUN 1C DEB",
        "meta_object_id": "1999-025EUT",
        "meta_epoch": "2025-12-02T23:18:31.375872",
        "meta_mean_motion": 14.23518858,
        "meta_eccentricity": 0.00644877,
        "meta_inclination": 99.1384,
        "meta_ra_of_asc_node": 340.4394,
        "meta_arg_of_pericenter": 63.9975,
        "meta_mean_anomaly": 296.7825,
        "meta_ephemeris_type": 0,
        "meta_classification_type": "U",
        "meta_norad_cat_id": 38803,
        "meta_element_set_no": 999,
        "meta_rev_at_epoch": 60073,
        "meta_bstar": 0.0027014694,
        "meta_mean_motion_dot": 6.236e-05,
        "meta_mean_motion_ddot": 0,
        "tle_line1": "1 38803U 99025EUT 25336.97119648  .00006236  00000+0  27015-2 0  9994",
        "tle_line2": "2 38803  99.1384 340.4394 0064487  63.9975 296.7825 14.23518858600733"
      },
      "geometry": {
        "type": "Point",
        "coordinates": [
          -55.74446892432095,
          75.79418284336413
        ]
      }
    },
    {
      "type": "Feature",
      "properties": {
        "norad_id": 38809,
        "name": "FENGYUN 1C DEB",
        "group": "fengyun-1c-debris",
        "lat": 18.64795642205917,
        "lon": 173.45029931539403,
        "alt_km": 991.8481234852561,
        "timestamp": "2025-12-06T03:35:02.161736+00:00",
        "meta_object_name": "FENGYUN 1C DEB",
        "meta_object_id": "1999-025EUZ",
        "meta_epoch": "2025-12-05T06:30:23.152320",
        "meta_mean_motion": 14.18136991,
        "meta_eccentricity": 0.02231713,
        "meta_inclination": 98.5894,
        "meta_ra_of_asc_node": 349.676,
        "meta_arg_of_pericenter": 349.5929,
        "meta_mean_anomaly": 10.0666,
        "meta_ephemeris_type": 0,
        "meta_classification_type": "U",
        "meta_norad_cat_id": 38809,
        "meta_element_set_no": 999,
        "meta_rev_at_epoch": 69100,
        "meta_bstar": 0.0011831883,
        "meta_mean_motion_dot": 3.063e-05,
        "meta_mean_motion_ddot": 0,
        "tle_line1": "1 38809U 99025EUZ 25339.27110130  .00003063  00000+0  11832-2 0  9998",
        "tle_line2": "2 38809  98.5894 349.6760 0223171 349.5929  10.0666 14.18136991691003"
      },
      "geometry": {
        "type": "Point",
        "coordinates": [
          173.45029931539403,
          18.64795642205917
        ]
      }
    }
  ]
}